[{"OBJECT_NAME":"STARLINK-3611","OBJECT_ID":"2022-017M","EPOCH":"2026-03-09T22:09:57.337056","MEAN_MOTION":15.08840163,"ECCENTRICITY":0.000154,"INCLINATION":53.2195,"RA_OF_ASC_NODE":338.122,"ARG_OF_PERICENTER":104.4617,"MEAN_ANOMALY":255.6546,"EPHEMERIS_TYPE":0,"CLASSIFICATION_TYPE":"U","NORAD_CAT_ID":51779,"ELEMENT_SET_NO":999,"REV_AT_EPOCH":22260,"BSTAR":-1.240361e-6,"MEAN_MOTION_DOT":-3.08e-6,"MEAN_MOTION_DDOT":0},{"OBJECT_NAME":"OBJECT T","OBJECT_ID":"2018-099T","EPOCH":"2026-03-09T14:32:29.418720","MEAN_MOTION":15.09436097,"ECCENTRICITY":0.0004517,"INCLINATION":97.4347,"RA_OF_ASC_NODE":115.9313,"ARG_OF_PERICENTER":320.9739,"MEAN_ANOMALY":39.1164,"EPHEMERIS_TYPE":0,"CLASSIFICATION_TYPE":"U","NORAD_CAT_ID":43775,"ELEMENT_SET_NO":999,"REV_AT_EPOCH":39729,"BSTAR":0.00032877,"MEAN_MOTION_DOT":5.2e-5,"MEAN_MOTION_DDOT":0}]
